$$SOE
2459580.500000000, A.D. 2022-Jan-01 00:00:00.0000, 5.271680043586763E+08, 1.884504559466327E+08, -1.452950750517905E+07,
2459587.500000000, A.D. 2022-Jan-08 00:00:00.0000, 5.251528579715040E+08, 1.977815089229016E+08, -1.507393242315163E+07,
2459594.500000000, A.D. 2022-Jan-15 00:00:00.0000, 5.229935971333472E+08, 2.070581214907781E+08, -1.561421944555225E+07,
2459601.500000000, A.D. 2022-Jan-22 00:00:00.0000, 5.206918433889806E+08, 2.162781550721862E+08, -1.615025110611485E+07,
2459608.500000000, A.D. 2022-Jan-29 00:00:00.0000, 5.182492428336830E+08, 2.254395226179067E+08, -1.668191291733874E+07,
2459615.500000000, A.D. 2022-Feb-05 00:00:00.0000, 5.156674624279450E+08, 2.345401877203619E+08, -1.720909320023456E+07,
2459622.500000000, A.D. 2022-Feb-12 00:00:00.0000, 5.129481885237232E+08, 2.435781626196283E+08, -1.773168319711378E+07,
2459629.500000000, A.D. 2022-Feb-19 00:00:00.0000, 5.100931262771021E+08, 2.525515074735426E+08, -1.824957715256764E+07,
2459636.500000000, A.D. 2022-Feb-26 00:00:00.0000, 5.071039986359304E+08, 2.614583301712916E+08, -1.876267230171420E+07,
2459643.500000000, A.D. 2022-Mar-05 00:00:00.0000, 5.039825450619307E+08, 2.702967860759465E+08, -1.927086883109857E+07,
2459650.500000000, A.D. 2022-Mar-12 00:00:00.0000, 5.007305202092679E+08, 2.790650776324794E+08, -1.977406983837095E+07,
2459657.500000000, A.D. 2022-Mar-19 00:00:00.0000, 4.973496926306885E+08, 2.877614538715378E+08, -2.027218129538999E+07,
2459664.500000000, A.D. 2022-Mar-26 00:00:00.0000, 4.938418435336018E+08, 2.963842098052696E+08, -2.076511201769361E+07,
2459671.500000000, A.D. 2022-Apr-02 00:00:00.0000, 4.902087656538570E+08, 3.049316856616085E+08, -2.125277365149872E+07,
2459678.500000000, A.D. 2022-Apr-09 00:00:00.0000, 4.864522625192882E+08, 3.134022659639959E+08, -2.173508070313966E+07,
2459685.500000000, A.D. 2022-Apr-16 00:00:00.0000, 4.825741484600151E+08, 3.217943791123421E+08, -2.221195059058265E+07,
2459692.500000000, A.D. 2022-Apr-23 00:00:00.0000, 4.785762480956534E+08, 3.301064985509709E+08, -2.268330351222962E+07,
2459699.500000000, A.D. 2022-Apr-30 00:00:00.0000, 4.744603934283910E+08, 3.383371432806807E+08, -2.314906214503516E+07,
2459706.500000000, A.D. 2022-May-07 00:00:00.0000, 4.702284216052079E+08, 3.464848757438198E+08, -2.360915161434166E+07,
2459713.500000000, A.D. 2022-May-14 00:00:00.0000, 4.658821747385575E+08, 3.545483001217447E+08, -2.406349961480887E+07,
2459720.500000000, A.D. 2022-May-21 00:00:00.0000, 4.614234997534451E+08, 3.625260618046077E+08, -2.451203643420354E+07,
2459727.500000000, A.D. 2022-May-28 00:00:00.0000, 4.568542477813631E+08, 3.704168470763454E+08, -2.495469491452043E+07,
2459734.500000000, A.D. 2022-Jun-04 00:00:00.0000, 4.521762733777077E+08, 3.782193827036854E+08, -2.539141040146616E+07,
2459741.500000000, A.D. 2022-Jun-11 00:00:00.0000, 4.473914337069091E+08, 3.859324354329151E+08, -2.582212069543798E+07,
2459748.500000000, A.D. 2022-Jun-18 00:00:00.0000, 4.425015877335147E+08, 3.935548114091860E+08, -2.624676600648578E+07,
2459755.500000000, A.D. 2022-Jun-25 00:00:00.0000, 4.375085954481975E+08, 4.010853554865806E+08, -2.666528891866982E+07,
2459762.500000000, A.D. 2022-Jul-02 00:00:00.0000, 4.324143172622554E+08, 4.085229503644734E+08, -2.707763438145965E+07,
2459769.500000000, A.D. 2022-Jul-09 00:00:00.0000, 4.272206139603984E+08, 4.158665157281723E+08, -2.748374974947508E+07,
2459776.500000000, A.D. 2022-Jul-16 00:00:00.0000, 4.219293471558458E+08, 4.231150084770604E+08, -2.788358477694215E+07,
2459783.500000000, A.D. 2022-Jul-23 00:00:00.0000, 4.165423780475253E+08, 4.302674241181537E+08, -2.827709135862339E+07,
2459790.500000000, A.D. 2022-Jul-30 00:00:00.0000, 4.110615645618314E+08, 4.373227959726727E+08, -2.866422329871592E+07,
2459797.500000000, A.D. 2022-Aug-06 00:00:00.0000, 4.054887604774798E+08, 4.442801928455722E+08, -2.904493638472742E+07,
2459804.500000000, A.D. 2022-Aug-13 00:00:00.0000, 3.998258157098078E+08, 4.511387179133102E+08, -2.941918846557957E+07,
2459811.500000000, A.D. 2022-Aug-20 00:00:00.0000, 3.940745761843905E+08, 4.578975083273435E+08, -2.978693943091133E+07,
2459818.500000000, A.D. 2022-Aug-27 00:00:00.0000, 3.882368833676330E+08, 4.645557348077551E+08, -3.014815115703058E+07,
2459825.500000000, A.D. 2022-Sep-03 00:00:00.0000, 3.823145737018653E+08, 4.711126011172135E+08, -3.050278745117360E+07,
2459832.500000000, A.D. 2022-Sep-10 00:00:00.0000, 3.763094780344893E+08, 4.775673434396912E+08, -3.085081400030684E+07,
2459839.500000000, A.D. 2022-Sep-17 00:00:00.0000, 3.702234210698933E+08, 4.839192296626334E+08, -3.119219832729569E+07,
2459846.500000000, A.D. 2022-Sep-24 00:00:00.0000, 3.640582209037811E+08, 4.901675585121402E+08, -3.152690976419398E+07,
2459853.500000000, A.D. 2022-Oct-01 00:00:00.0000, 3.578156888791494E+08, 4.963116585193856E+08, -3.185491946662799E+07,
2459860.500000000, A.D. 2022-Oct-08 00:00:00.0000, 3.514976301706670E+08, 5.023508873408494E+08, -3.217620046421057E+07,
2459867.500000000, A.D. 2022-Oct-15 00:00:00.0000, 3.451058441650168E+08, 5.082846326315402E+08, -3.249072756379429E+07,
2459874.500000000, A.D. 2022-Oct-22 00:00:00.0000, 3.386421224542855E+08, 5.141123127871034E+08, -3.279847704324096E+07,
2459881.500000000, A.D. 2022-Oct-29 00:00:00.0000, 3.321082469392526E+08, 5.198333749622966E+08, -3.309942657701370E+07,
2459888.500000000, A.D. 2022-Nov-05 00:00:00.0000, 3.255059901418837E+08, 5.254472931076862E+08, -3.339355536253574E+07,
2459895.500000000, A.D. 2022-Nov-12 00:00:00.0000, 3.188371157616574E+08, 5.309535672915349E+08, -3.368084416379413E+07,
2459902.500000000, A.D. 2022-Nov-19 00:00:00.0000, 3.121033787553947E+08, 5.363517233526501E+08, -3.396127528431955E+07,
2459909.500000000, A.D. 2022-Nov-26 00:00:00.0000, 3.053065252019588E+08, 5.416413124870052E+08, -3.423483252618283E+07,
2459916.500000000, A.D. 2022-Dec-03 00:00:00.0000, 2.984482921170787E+08, 5.468219107567933E+08, -3.450150115126586E+07,
2459923.500000000, A.D. 2022-Dec-10 00:00:00.0000, 2.915304072630702E+08, 5.518931185408287E+08, -3.476126784750292E+07,
2459930.500000000, A.D. 2022-Dec-17 00:00:00.0000, 2.845545889774587E+08, 5.568545599015753E+08, -3.501412070441553E+07,
2459937.500000000, A.D. 2022-Dec-24 00:00:00.0000, 2.775225461292342E+08, 5.617058818033205E+08, -3.526004921335045E+07,
2459944.500000000, A.D. 2022-Dec-31 00:00:00.0000, 2.704359785598658E+08, 5.664467532894678E+08, -3.549904431643108E+07,
2459951.500000000, A.D. 2023-Jan-07 00:00:00.0000, 2.632965781315500E+08, 5.710768655817420E+08, -3.573109843684953E+07,
2459958.500000000, A.D. 2023-Jan-14 00:00:00.0000, 2.561060284153649E+08, 5.755959335978734E+08, -3.595620526942825E+07,
2459965.500000000, A.D. 2023-Jan-21 00:00:00.0000, 2.488660023735904E+08, 5.800036957148433E+08, -3.617435953140163E+07,
2459972.500000000, A.D. 2023-Jan-28 00:00:00.0000, 2.415781617036033E+08, 5.842999115830401E+08, -3.638555702578905E+07,
2459979.500000000, A.D. 2023-Feb-04 00:00:00.0000, 2.342441576349222E+08, 5.884843610195091E+08, -3.658979475083989E+07,
2459986.500000000, A.D. 2023-Feb-11 00:00:00.0000, 2.268656313838916E+08, 5.925568437864566E+08, -3.678707090660757E+07,
2459993.500000000, A.D. 2023-Feb-18 00:00:00.0000, 2.194442142023017E+08, 5.965171794318070E+08, -3.697738485998231E+07,
2460000.500000000, A.D. 2023-Feb-25 00:00:00.0000, 2.119815272824580E+08, 6.003652070301344E+08, -3.716073710536540E+07,
2460007.500000000, A.D. 2023-Mar-04 00:00:00.0000, 2.044791816207117E+08, 6.041007848428148E+08, -3.733712922865665E+07,
2460014.500000000, A.D. 2023-Mar-11 00:00:00.0000, 1.969387778678545E+08, 6.077237898978024E+08, -3.750656387692642E+07,
2460021.500000000, A.D. 2023-Mar-18 00:00:00.0000, 1.893619062130803E+08, 6.112341174393809E+08, -3.766904474187514E+07,
2460028.500000000, A.D. 2023-Mar-25 00:00:00.0000, 1.817501465043116E+08, 6.146316802006546E+08, -3.782457657930467E+07,
2460035.500000000, A.D. 2023-Apr-01 00:00:00.0000, 1.741050690288877E+08, 6.179164078924868E+08, -3.797316527114967E+07,
2460042.500000000, A.D. 2023-Apr-08 00:00:00.0000, 1.664282353390036E+08, 6.210882481343530E+08, -3.811481777334842E+07,
2460049.500000000, A.D. 2023-Apr-15 00:00:00.0000, 1.587211967846881E+08, 6.241471677208744E+08, -3.824954182540047E+07,
2460056.500000000, A.D. 2023-Apr-22 00:00:00.0000, 1.509854925628292E+08, 6.270931511721885E+08, -3.837734583677214E+07,
2460063.500000000, A.D. 2023-Apr-29 00:00:00.0000, 1.432226500171417E+08, 6.299261988219881E+08, -3.849823901696616E+07,
2460070.500000000, A.D. 2023-May-06 00:00:00.0000, 1.354341854291936E+08, 6.326463262246362E+08, -3.861223144237575E+07,
2460077.500000000, A.D. 2023-May-13 00:00:00.0000, 1.276216043236216E+08, 6.352535639874686E+08, -3.871933404343209E+07,
2460084.500000000, A.D. 2023-May-20 00:00:00.0000, 1.197864015213716E+08, 6.377479575369568E+08, -3.881955857379070E+07,
2460091.500000000, A.D. 2023-May-27 00:00:00.0000, 1.119300611341234E+08, 6.401295667891655E+08, -3.891291758191839E+07,
2460098.500000000, A.D. 2023-Jun-03 00:00:00.0000, 1.040540565571766E+08, 6.423984657503790E+08, -3.899942438848490E+07,
2460105.500000000, A.D. 2023-Jun-10 00:00:00.0000, 9.615985048426136E+07, 6.445547420340306E+08, -3.907909307313088E+07,
2460112.500000000, A.D. 2023-Jun-17 00:00:00.0000, 8.824889503298694E+07, 6.465984962337366E+08, -3.915193848394439E+07,
2460119.500000000, A.D. 2023-Jun-24 00:00:00.0000, 8.032263230058387E+07, 6.485298412080464E+08, -3.921797629469448E+07,
2460126.500000000, A.D. 2023-Jul-01 00:00:00.0000, 7.238249560283622E+07, 6.503489021051586E+08, -3.927722306560156E+07,
2460133.500000000, A.D. 2023-Jul-08 00:00:00.0000, 6.442990972224523E+07, 6.520558179496822E+08, -3.932969608713403E+07,
2460140.500000000, A.D. 2023-Jul-15 00:00:00.0000, 5.646628888852471E+07, 6.536507419609621E+08, -3.937541312101167E+07,
2460147.500000000, A.D. 2023-Jul-22 00:00:00.0000, 4.849303601204939E+07, 6.551338395683724E+08, -3.941439244593889E+07,
$$EOE